name,address,note,lat,long,,,
Abilene Astronomical Society,Abilene 1817 Jackson St,15 members,32.4267762,-99.7440188,,,
Alachua Astronomy Club inc.,Gainesville 2603 NW 13th St 161,110 members,29.6761732,-82.3382938,,,
Alamogordo Astronomy Club,Alamogordo International Space Hall of Fame Hwy 2001,505-437-5857,32.9301946,-105.9639664,,,
Albany Area Amateur Astronomers Inc.,Ballston Lake 3 Hawley Drive,140 members,42.9112547,-73.9398627,,,
Aldrich Astronomical Society,Paxton 50 Sunset Lane Box S,Founded in 1932,42.331617,-71.919849,,,
Allegheny Highland Astronomical Society,Ridgeway PO Box 277,(814) 772-0472,39.3583417,-74.5604571,,,
Amarillo Astronomy Club,Amarillo 7813 Simpson Dr,45 members,35.1822294,-101.9310297,,,
Amateur Astronomers Association of NY,Brooklyn PO Box 150253,650 members,40.6781784,-73.9441579,,,
Amateur Astronomers Assn. of Pittsburgh,Glenshaw PO Box 314,550 members,40.5325079,-79.9680392,,,
Amateur Astronomers Assn. of Princeton Inc.,Princeton PO Box 2017,155 members,40.3572976,-74.6672226,,,
Amateur Astronomers Inc.,Cranford Union County College 1033 Springfield Ave,248 members,40.6660061,-74.3228022,,,
Amateur Astronomers Of Beaver County,PA Beaver County,http://aaobc.com,40.6367812,-80.365865,,,
Amateur Astronomers of Central Iowa,Tama 1009 Harding St,50173,41.9690743,-92.5820247,,,
Amateur Astronomers of Jackson,Jackson 910 Edgewood Street,30 members,42.2608274,-84.3895622,,,
Amateur Observers Society of New York,Hempstead Hofstra University,150 members. Meets at Hofstra University,40.7166872,-73.5993965,,,
Amateur Telescope Makers of Boston Inc.,Westford 20 Millstone Hill Rd,350 members,42.6091545,-71.494243,,,
American Association of Amateur Astronomers,Plano 3131 Custer Road Ste 175,75075,33.0402942,-96.7340955,,,
Ames Area Amateur Astronomers,Ames 3912 Brookdale Cir,77 members,42.0596784,-93.6359312,,,
Amherst Astronomy Association,Amherst 1403 South East St,70 members,42.3285545,-72.5001929,,,
Ancient City Astronomy Club,St Augustine 3609 Crazy Horse Trail,40 members,29.8222732,-81.3425627,,,
Andromeda Astronomical Society,Yucca Valley PO Box 8,70 members,34.1209623,-116.4143407,,,
Anne Arundel Assn. of Amateur Astronomers,Arnold 101 College Pkwy,410-541-2271,39.0490696,-76.516773,,,
Antelope Valley Astronomy Club,Lancaster PO Box 4595,100 members,34.6867846,-118.1541632,,,
Arkansas Valley Astronomical Society,Buena Vista PO Box 4559,http://www.fourteenernet.com/avas,38.8422178,-106.1311288,,,
Arrowhead Astronomical Society,Duluth Alworth Planetarium Univ of MinnesotaDuluth,30 members,46.8161252,-92.0871573,,,
ASH Edward L. Naylor Astronomical Center,Lewisberry 670 Observatory Dr,http://www.astrohbg.org,40.14887,-76.89583,,,
Assn. of Amateur Astronomers,College Station Physics Dept at Texas AM Univ,http://www.isc.tamu.edu/~astro/aaa.,30.620238,-96.342505,,,
Astro Scopers,Seminole 8350 81st St N,22 members,27.8474396,-82.7505803,,,
AstroCruisers,West Trenton POB 7822,http://www.eyeonthesky.com/astrocru,40.2650436,-74.8192758,,,
Astronomers of Humboldt,Eureka PO Box 351,http://www.astrohum.org,48.8799647,-115.0535001,,,
Astronomers of Verde Valley,Cottonwood PO Box 714,70 members,34.7391876,-112.0098791,,,
Astronomical Association of Southern Illinoi,Carbondale 205 S Canterbury Drive,53 members,37.7255918,-89.2410559,,,
Astronomical Club of Southern West Virginia,Athens Box 28 Concord College,http://www.acswv.org,37.4242482,-81.0047648,,,
Astronomical Institute of the Rockies,Helena 451 Washington St,20 members,46.5891452,-112.0391057,,,
Astronomical Society,Melbourne Florida Institute of Technology,30 members,28.0646282,-80.6230583,,,
Astronomical Society at Univ. of Illinois,Urbana Astronomy Bldg 1002 W Green St,100 members,40.1109366,-88.220887,,,
Astronomical Society of Bay County,Panama City 308 Airport Road,26 members,30.179902,-85.6641259,,,
Astronomical Society of Harrisburg Inc.,Lewisberry PO Box 160,150 members,40.1350928,-76.8596945,,,
Astronomical Society of Hillsdale County,Fremont PO Box 39,20 members,37.5485396,-121.988583,,,
Astronomical Society of Kansas City,Kansas City 7241 Jarboe,300+ members,38.9966216,-94.6018075,,,
Astronomical Society of Las Cruces,Las Cruces PO Box 921,80 members,32.3199396,-106.7636538,,,
Astronomical Society of Lenawee & Hillsdale,Manitou Beach 14815 Rome Rd,25 members,41.9425559,-84.2810139,,,
Astronomical Society of Long Island,NY Vanderbilt Planetarium,100 members. Every Wed except for holidays.,40.9056914,-73.3684403,,,
Northern Colorado Astronomical Society,Fort Collins 408 Mason Ct,60 members,40.5935873,-105.0779638,,,
Astronomical Society of Nevada,Sparks 3300 Sansol Ct,http://www.astronomynv.org,39.6235558,-119.6812009,,,
Astronomical Society of Nevada,Reno 4275 Settler Drive,70 members,39.4793156,-119.7588565,,,
Astronomical Society of Nevada,NV Las Vegas,http://www.astronomynv.org/vegas/,36.1699412,-115.1398296,,,
Astronomical Society of New Haven Inc.,New Haven PO Box 16234,203-874-4816,41.308274,-72.9278835,,,
Astronomical Society of New York City,Staten Island 153 Arlo Rd,20 members,40.6196086,-74.0952313,,,
Astronomical Society of Northern New England,Kennebunk PO Box 1338,135 members,43.3845306,-70.54399,,,
Astronomical Society of Northwest Arkansas,Fayetteville 2300 Old Wire Rd,27 members,36.092652,-94.1398812,,,
Astronomical Society of Rowan County,Salisbury 3021 Old Mocksville Rd,15 members,35.7205851,-80.4659822,,,
Astronomical Society of Southern New England,Rehoboth 4 Locust Ave Carpenter Museum,100 members,41.8401461,-71.2519563,,,
Astronomical Society of the Central Coast,Marina 200 8th St,32 members,36.6608975,-121.8087334,,,
Astronomical Society of the Desert,Rancho Mirage PO Box 71,http://www.astrorx.org,33.7410437,-116.4104509,,,
Astronomical Society of the Grand Canyon,Grand Canyon PO Box 1515,7 members,36.1069258,-112.1129484,,,
Astronomical Society of the Palm Beaches,West Palm Beach PO Box 19652,100 members,26.7153424,-80.0533746,,,
Astronomical Society of the Toms River Area,Toms River Novins Planetarium at Ocean County College,96 members,40.008763,-74.165443,,,
Astronomical Units,Fairbanks Box 82210,15 members,64.8377778,-147.7163888,,,
Astronomy Associates of Lawrence,Lawrence Dept of Physics at 1251 Wescoe Hall Dr,20 members,38.9566109,-95.2483829,,,
Astronomy Club of Akron Inc.,Akron 586 Fairwood Rd,fourth Fri of month at Kiwanis Club of Portage Lakes Civic Center,40.9486544,-81.5549507,,,
Astronomy Club of Asheville,Asheville 853 New Haw Creek Road,115 members,35.609537,-82.499009,,,
Astronomy Club of Augusta,Augusta PO Box 15712,60 members,33.4734978,-82.0105148,,,
Litchfield Hills Amateur Astronomy Club,CT Litchfield,http://lhastro.org/,41.7472642,-73.1887165,,,
Astronomy Club of Sun City West,Sun City West 17802 N 131st Ave,167 members,33.6454066,-112.339598,,,
Astronomy Club of the Univ. of California at,Davis Physics Dept at Univ of California,20 members,38.5367058,-121.7513568,,,
Astronomy Club of Tulsa,Tulsa PO Box 470611,150 members,36.1539816,-95.992775,,,
Astronomy Club of Virginia Tech,Blacksburg Physics Dept,70 members,37.2281554,-80.4252031,,,
Astronomy Enthusiasts of Lancaster County,Lancaster Museum Planetarium at 400 College Ave,40 members,40.043545,-76.320163,,,
Astronomy For Youth Inc,Lucas Horsemans Area at Malabar Farm State Park,Public night is 3rd Sat each month,40.6525867,-82.3984872,,,
Astronomy to Go,Melrose Park 1115 Melrose Ave,215-831-0485,40.0653571,-75.1312102,,,
Athens Astronomical Assn.,Athens 160 Plantation Dr,5 members,33.9090512,-83.3108956,,,
Atlanta Astronomy Club Inc.,Marietta 3595 Canton Rd Suite A9305,270 members,34.038741,-84.528895,,,
Auburn Astronomical Society,Auburn 254 Lee Rd 433,20 members,32.5455767,-85.4147776,,,
Austin Astronomical Society,Austin PO Box 12831,http://www.austinastro.org,30.267153,-97.7430608,,,
Back Bay Amateur Astronomers,Virginia Beach PO Box 9877,87 members,36.839943,-76.091768,,,
Baltimore Astronomical Society,Baltimore Maryland Academy of Science at 601 Light St,140 members,39.2814149,-76.611917,,,
Barnard Astronomical Society,Chattanooga 838 Belvoir Hills Dr,51 members,35.0031332,-85.2485357,,,
Barnard-Seyfert Astronomical Society,Brentwood 1000 Oman Dr,102 members,36.0524162,-86.8055965,,,
Bartlesville Astronomical Society,Bartlesville Rt 2 Box 940,918-333-1966,36.7473114,-95.9808179,,,
Baton Rouge Astronomical Society,Baton Rouge 6348 Double Tree Ct,http://www.brastro.org,30.3949833,-90.9747672,,,
Battle Point Astronomical Assn.,Bainbridge Island PO Box 10914,200 members,47.6248791,-122.5210007,,,
Bays Mountain Astronomy Club,Kingsport 853 Bays Mountain Park Rd,50 members,36.5084719,-82.6103515,,,
Beaufort South Carolina Amateur Astronomer,SC Beaufort,http://www.islc.net/~mwlesso/astrono.htm,32.4315813,-80.6698286,,,
Belen Jesuit Prep School Astronomy Club,Miami 500 SW 127th Ave,305-223-8600,25.7648007,-80.4017001,,,
Berks County Amateur Astronomical Society In,Wyomissing PO Box 6150,100 members,40.329537,-75.9652117,,,
Big Sky Astronomy Club,Kalispell PO Box 631,25 Members,48.1919889,-114.316813,,,
Birmingham Astronomical Society,Birmingham 5032 Wendover Dr,70 members,33.5151311,-86.6946949,,,
Black Hills Astronomical Society,Rapid City 4715 Hidden Valley Rd,https://sdbhas.org/,44.1111747,-103.3020524,,,
Black River Astronomical Society,Lorain 1631 Maple Dr,50 members,41.4658973,-82.1353012,,,
Blue Ridge Astronomy Club,VA Lynchburg,http://www.blueridgeastronomy.org,37.4137536,-79.1422464,,,
Blue Ridge Skywatch Astrophotography Society,Salem 3356 Absalom Smith Road,4 members,37.369397,-80.0489299,,,
Bluegrass Amateur Astronomy Club,Lexington 1016 Della Dr,http://www.ms.uky.edu/~bgaac/index.,38.039129,-84.5468512,,,
Boeing Employees Amateur Astronomers Club -,St Louis 7320 Chamberlain Ave,60 members,38.6663555,-90.3256705,,,
Boeing Employees Astronomical Society,Seattle PO Box 3703,120 members,47.6062095,-122.3320708,,,
Boise Astronomical Society,Boise PO Box 7002,75 members,43.6150186,-116.2023137,,,
Boothe Astronomical Society,Stratford Boothe Memorial Park at Main St,20 members,41.2352088,-73.1094592,,,
Boston University Astronomical Society,Boston Dept of Astronomy at 725 Commonwealth Ave,60 members,42.3500535,-71.1039057,,,
Bowling Green Sky Gazers,Bowling Green 5024 Ridgeview Dr,502-842-6008,36.9937766,-86.5231406,,,
Brazosport Astronomical Society,Lake Jackson Nature Center and Planetarium at 400 College Dr,20 members,29.0454784,-95.4089405,,,
Brevard Astronomical Society Inc.,Cocoa PO Box 1084,40 members,28.3861159,-80.7419984,,,
Brigham Young University Astronomical Societ,Provo Dept of Physics and Astronomy at 263 FB,10 members,40.2470134,-111.6502356,,,
Bristol Astronomy Club,Bristol 4559 Reedy Creek Rd,25 members,36.6095423,-82.2678776,,,
Bucks-Mont Astronomical Assn.,Chalfont 36 FarView Rd,75 members,40.2779144,-75.2013599,,,
Buffalo Astronomical Association,North Java 1610 Welch Road,100+ members, affiliated with Buffalo Museum of Science,42.683475,-78.375003,,
Cabrillo Astr. Stargazing Society,Aptos Cabrillo College at 6500 Soquel Dr,24 members,36.9876108,-121.9259014,,,
Caltech SEDS,Pasadena 11258 Caltech,150 members,34.1393106,-118.1217325,,,
Campbell County High School Astronomy Club,Gillette 1000 Camel Lane,23 members,44.2817591,-105.4881756,,,
Cannon Valley Astronomical Society,Northfield 417 Winona St,20 members,44.4553548,-93.153516,,,
Cape Fear Astronomical Society,Wilmington 305 N 21st St,30 members,34.2420904,-77.9233293,,,
Capital Area Astronomy Club,East Lansing Abrams Planetarium at Michigan State Univ,60 members,42.725606,-84.4759047,,,
Carolina Sidewalk Astronomers,Boiling Springs 932 Hanging Rock Road,http://www.geocities.com/spacerocksinc/spacerocksinc.html,35.0325107,-81.9961449,,,
Carolina Skygazers Astronomy Club,Rock Hill Museum of York County at 4621 Mount Gallant Rd,45 members,35.0100332,-81.0628414,,,
Catawba Valley Astronomy Club,Mooresville 722 Pinewood Circle,55 members,35.5761772,-80.8301018,,,
Cedar Amateur Astronomers,IA Cedar Rapids,100 members,41.9778795,-91.6656232,,,
Cedar Amateur Astronomers Inc.,Swisher 73 Summit Ave NE,60 members,41.8484153,-91.6919964,,,
Cedar Valley Amateur Astronomers Assn.,Waterloo 503 South St,319-266-4015,42.4928211,-92.3438137,,,
Celestial Observers,Chatsworth PO Box 3524,818-882-6172,34.2506356,-118.61481,,,
Central Arkansas Astronomical Society,AR Little Rock,40 members,34.7464809,-92.2895948,,,
Central Coast Astronomical Society,San Luis Obispo PO Box 1415,90 members,35.2827524,-120.6596156,,,
Central Florida Astronomical Society,Oviedo PO BOX 620907,http://www.cfas.org,28.669997,-81.2081203,,,
Central Iowa Astronomers Inc.,Indianola 117 W Hillcrest,4 members,41.3805128,-93.5610062,,,
Central Maine Astronomical Society,Whitefield PO Box 10,http://clary.gwi.net/cmas/,44.2209071,-69.5848918,,,
Central Missouri Amateur Astronomers,Columbia Physics Bldg at Univ of Missouri,3rd Sat of each month at 7:30pm,38.9436557,-92.3227735,,,
Central Oregon Astronomical Society,Bend Environmental Center at 16 NW Kansas,45 members,44.0555482,-121.3143216,,,
Central Pennsylvania Observers,State College PO Box 947,20 members,40.7933949,-77.8600012,,,
Central Texas Astronomical Society Inc.,Waco 3620 Franklin Ave,60 members,31.529931,-97.1595554,,,
Central Texas Star Gazers,Belton 201 Montrose,12 members,31.0785918,-97.4586524,,,
Central Valley Astronomers Inc.,Pinedale PO Box 3063,559-264-2645,42.8678809,-109.8633501,,,
Central Wyoming Astronomical Society,Casper 904 N Poplar St,24 members,42.8600784,-106.3331805,,,
Centralmo Astronomy Society,Ulm PO Box 138,35 members,32.5267122,-92.0731791,,,
Chagrin Valley Astronomical Society,Chagrin Falls PO Box 11,40 members,41.4296834,-81.385719,,,
Champaign-Urbana Astronomical Society,Champaign Parkland College at 2400 West Bradley Ave,75 members,40.132922,-88.2906567,,,
Chapel Hill Astronomical and Observational S,Chapel Hill PO Box 842,17 members,35.9131996,-79.0558445,,,
Charlotte Amateur Astronomers Club,Matthews 245 Timber Lane,95 members,35.025105,-80.7387861,,,
Charlottesville Astronomical Society,Charlottesville 3457 Preddy Creek Road,804-975-2888,38.1612871,-78.3802897,,,
Chattahoochee Valley Astronomical Society,Columbus Patterson Planetarium at 2900 Woodruff Farm Rd,25 members,32.4881286,-84.8977355,,,
Chautauqua and Erie Astronomical Society,Northeast Mercyhurst College at 16 W Division St,30 members,42.2196529,-79.8357581,,,
Chesmont Astronomical Society,Limerick 141 Azalea Circle,3rd Sun of each month at 7:00pm,40.237531,-75.542158,,,
Chester County Astronomy Society,Thornton 7 Westover Dr,(610) 268-2616,39.911161,-75.5392018,,,
Cheyenne Astronomical Society,Cheyenne 3539 Luther Place,85 members,41.1504102,-104.7668841,,,
Chicago Astronomical Society,Chicago PO Box 30287,105 members,41.8781136,-87.6297982,,,
China Lake Astronomical Society,Ridgecrest PO Box 1783,80 members,35.6224561,-117.6708966,,,
Chippewa Valley Astronomical Society,Eau Claire PO Box 763,53 members,44.811349,-91.4984941,,,
Chugach Stargazer Society,Anchorage 707 A Street Suite 201,(907)269-7983,61.2152109,-149.8827366,,,
Cimarron County Star Gazers,Boise City PO Box 278,3 members,36.7294675,-102.5132419,,,
Cincinnati Astronomical Society,Cleves 5274 Zion Rd,460 Members,39.1918625,-84.7107104,,,
City Lights Astronomical Society for Student,Plano 1409 Sequoia Dr,120 members. Public outreach for students K-12,33.0440823,-96.7210735,,,
Clemson Area Amateur Astronomers,Seneca 1711 Merrimac Circle,35 members,34.7049827,-82.9494626,,,
Cleveland Astronomical Society,Cleveland Museum of Natural History at 1 Wade Oval Dr,80 members,41.511524,-81.6128836,,,
Cleveland County Astronomical Society,Boiling Springs Williams Obs at GardnerWebb University,704-434-4433,35.2475249,-81.6706979,,,
Clovis Astronomy Club,Clovis 3517 Corlington,9 members,34.4347132,-103.1902423,,,
Coconino Astronomical Society,Flagstaff 691 Kachina Trail,16 members,35.0900426,-111.6883398,,,
College of the Mainland Astronomy Club,Texas City Division of Natural Science at 1200 Amburn Rd,409-938-1211 ext. 325,29.3958247,-94.9988271,,,
Colorado Springs Astronomical Society,Colorado Springs PO Box 38121,87 members,38.8338816,-104.8213634,,,
Columbus Astronomical Society,Columbus PO Box 163004,220 members,39.9611755,-82.9987942,,,
Corpus Christi Astronomical Society,Corpus Christi 3814 Marion St,10 members,27.7286687,-97.3970989,,,
Cosmo Astronomical Society,Pine Hills 3415 Silverwood Dr,http://personal.mco.bellsouth.net/~,28.5866161,-81.4588395,,,
Crossroads Astronomy Club,Nursery PO Box 180,22 members,28.9225897,-97.0969956,,,
Crystal River High School Astronomy Club,Crystal River 1205 N E 8th Avenue,Novice club that meets monthly during school hours to study and promote interest in astronomy.,28.906242,-82.5802875,,,
Cumberland Astronomical Society,Gallatin PO Box 1733,30 members,36.3883809,-86.4466599,,,
Custer Institute Astronomy Club,Jamesport 448 Herricks Lane,100 members,40.9703985,-72.5829599,,,
Cuyahoga Astronomical Assn.,N Olmstead PO Box 868,120 members,41.4156025,-81.9234726,,,
Dakota Astronomical Society,Bismarck 757 Munich Dr,50 members,46.7815073,-100.8041295,,,
Decatur Area Astronomy Club,Decatur 39 Whippoorwill Dr,http://www.decaturastronomy.com,39.8880514,-88.9131877,,,
Delaware Astronomical Society,Wilmington PO Box 652,302-655-3230,39.744655,-75.5483909,,,
Delaware Valley Amateur Astronomers,Drexel Hill 477 Turner Avenue,meets in Radnor, PA,39.9481154,-75.2955486,,
Delmarva Star Gazers,Smyrna 514 Marilyn Rd,http://www.delmarvastargazers.org,39.2911705,-75.6069644,,,
Delta Astronomical Society,Escanaba 800 S 15th St,30 members,45.7372799,-87.0687864,,,
Denver Astronomical Society,Denver Chamberlin Obs at 2930 E Warren Ave,http://www.denverastrosociety.org,39.6761139,-104.9530083,,,
Des Moines Astronomical Society Inc.,Des Moines PO Box 111,40 members,41.5868353,-93.6249593,,,
Desert Skygazer Astronomy Club,Pima PO Box 1134,928-485-7017,32.057499,-111.6660725,,,
Detroit Astronomical Society,Clarkston 9590 Ridgetop Trail,48348,42.7788907,-83.3334387,,,
Dinosaur Hill Astro. Society,Rochester 502 Whims Lane,20 members,42.724807,-83.144353,,,
Door Peninsula Astronomical Society,Sturgeon Bay 2041 Michigan Ave,48 members,44.8343571,-87.3453313,,,
Double Star Observer,Saugus 306 Reynolds Drive,781-231-1558,42.4622656,-70.9935717,,,
Downeast Amateur Astronomers,Pembroke PO Box K,20 members,34.6801626,-79.1950373,,,
East Central Wisconsin Astronomers,Pine River N3714 30th Drive,20 members,44.1128885,-89.0154548,,,
East Valley Astronomy Club,Mesa PO Box 2202,235 members,33.4151843,-111.8314724,,,
Eastbay Astronomical Society,Oakland Chabot Observatory at 10000 Skyline Blvd,200 members,37.8187474,-122.1807217,,,
Eastern Michigan Univ. Astronomy Club,Ypsilanti 303 Strong Hall,20 members,42.2479367,-83.6262796,,,
Eastern Missouri Dark Sky Observers,MO Washington,10 members,38.5581072,-91.0120878,,,
Eastside Astronomical Society,Bellevue PO Box 7482,135 members,47.6101497,-122.2015159,,,
El Paso Astronomy Club,El Paso 6531 Boeing Drive,http://www.elpasoastronomy.org,31.7945708,-106.3986298,,,
El Valle Astronomy Club,Embudo PO Box 126,87531,36.2075228,-105.9611318,,,
Elmira-Corning Astronomical Society,Elmira 5 Cardinal Lane,74 members,42.1307473,-76.9168941,,,
Erie County Mobile Observers Group,Erie 5840 Georgetown Drive,50 members,42.0751486,-80.0692129,,,
Escambia Amateur Astronomers Assn.,Pensacola Dept of Physical Sciences Pensacola Jr College at 1000 College Bvd,150 members,30.4809318,-87.2013052,,,
Eugene Astronomical Society,Eugene PO Box 7264,http://www.eugeneastro.org,44.0520691,-123.0867536,,,
Evansville Astronomical Society Inc.,Evansville PO Box 3474,80 members,37.9715592,-87.5710898,,,
Everett Astronomical Society,Everett PO Box 12746,60 members,47.9789848,-122.2020795,,,
Everglades Astronomical Society,Naples 754 101st Ave N,40 members,26.26317,-81.8070853,,,
Excelsior Telescope Club,Lakewood St Pancratius Catholic Church at 3519 St Pancratius Place,30 members,33.8586529,-118.1499989,,,
Fairfield County Astronomical Society,Stamford Stamford Museum Obs at 39 Scofieldtown Rd,45 members,41.1260803,-73.5456534,,,
Fargo-Moorhead Astronomical Club,Moorhead MSU Planetarium at Moorhead State University,23 members,46.8671458,-96.7610694,,,
FirstLight Astronomy Club,Temecula 31555 Rancho Vista,http://www.pe.net/~frstlght/,33.5018163,-117.1170531,,,
FIT Astronomy Society,Melborne Physics Dept Florida Institute of Technology at 150 W University Blvd,40 members,28.0646282,-80.6230583,,,
Flint River Astronomy Club,Hampton 190 West James Circle,40 members,33.4135804,-84.3021365,,,
Ford Amateur Astronomy Club,Dearborn PO Box 7527,160 members,42.3222599,-83.1763145,,,
Forsyth Astronomical Society,WinstonSalem PO Box 30128,50 members,36.0998596,-80.244216,,,
Fort Bend Astronomy Club,Sugar Land 2806 Field Line Dr,124 members,29.5847782,-95.6090214,,,
Fort Wayne Astronomical Society Inc.,Fort Wayne PO Box 11093,102 members,41.079273,-85.1393513,,,
Fort Worth Astronomical Society,Fort Worth PO 471162,150 members,32.7554883,-97.3307658,,,
Fox Valley Astronomical Society,Wasco PO Box 38,facebook.com/FVASinfo/,35.5941238,-119.3409457,,,
Fox Valley Sky Watchers,Sleepy Hollow 164 Hilltop Lane,15 members,42.0925399,-88.324804,,,
Fremont Peak Obs. Assn.,San Juan Bautista PO Box 1376,http://www.fpoa.net,36.8455108,-121.5379974,,,
Friends of Galileo Astronomy Club,Longview 175 Scenic View Dr,http://www.friendsofgalileo.org,46.1740312,-122.9232467,,,
The Cincinnati Observatory Center,Cincinnati 3489 Observatory Place,300 Members,39.1391615,-84.4226272,,,
Galileo Group,Greenville 242 S Poplar St,10 members,33.409675,-91.064042,,,
Gaston County Skywatchers,Gastonia Schiele Museum at Franklin Blvd,NC,35.253284,-81.158367,,,
General Dynamics Astronomy Club,Fort Worth 3400 BryantIrvin Rd,65 members,32.7001012,-97.4131262,,,
Genesee Astronomical Society,Flint Robert Longway Planetarium at 1310 E Kearsley St,35 members,43.0229491,-83.6757933,,,
Gloucester Area Astronomy Club,Gloucester 1123 Washington Street,31 members,42.678255,-70.655351,,,
Goddard Astronomy Club,Greenbelt Code 4408Lockheed at NASAGoddard Space Flight Center,41 members,38.99495,-76.852344,,,
Grand Rapids Amateur Astronomical Assn.,Lowell 3380 Kissing Rock Rd,200 members,42.9044875,-85.405502,,,
Grand Traverse Astronomical Society,Traverse City Joseph H Rogers Obs NW Michigan College at Birmley Rd,50 members,44.7063616,-85.6105961,,,
Greater Hazleton Area Astronomical Society,Conyngham PO Box 1032,70 members,40.9920285,-76.0565946,,,
Greater Ocala Astronomy Club,Ocala 1 Midway Track Place,32 members,29.1193024,-82.0089296,,,
Greenbelt Astronomy Club,Lanham Owens Science Center at 9601 Greenbelt Rd,http://lheawww.gsfc.nasa.gov/docs/o,38.9902612,-76.8395398,,,
Greensboro Astronomy Club,Greensboro Natural Science Center at 4301 Lawndale Dr,40 members,36.129837,-79.8339979,,,
Group 70 Large Amateur Telescope Project,San Leandro 1689 Abram Ct,http://www.hpl.hp.com/astro/group70,37.7106192,-122.1698027,,,
Halls Valley Astronomical Group,San Jose 1127 Sierra Ave,37 members,37.3306694,-121.9124426,,,
Harford County Astronomical Society,Joppa 608 Falconbridge Drive,60 members,39.4108621,-76.3405054,,,
Hawaiian Astronomical Society,Honolulu PO Box 17671,http://www.hawastsoc.org/,21.3069444,-157.8583333,,,
Heartland Astronomical Research Team,Topeka PO Box 3938,5 members,39.0473451,-95.6751576,,,
Hercules Stargazers,Richmond 6102 Sacramento Ave,15 members,37.9065989,-122.3071419,,,
High Desert Astronomical Society,Apple Valley 20702 Thunderbird Rd,45 members,34.5300197,-117.2123919,,,
High Desert Astronomy Club,Kingman 2770 Broken Arrow St,30 members,35.2027973,-113.967749,,,
High Plains Astronomy Club,Elbert 13265 Bozeman Trail,8 members,39.0222307,-104.5791158,,,
Hildene Astronomy Club,Manchester PO Box 377,Telescope: Warner & Swasey," 1909; Objective Lens: 6"" Brashear achromatic; 80""focal ratio",53.4807593,-2.2426305,,
Holmen Astronomy Club,WI Holmen,6 Members,43.9632962,-91.2562539,,,
Houston Astronomical Society,Houston PO Box 20332,300 members,29.7604267,-95.3698028,,,
Huachuca Astronomy Club of Southeastern Ariz,Sierra Vista 2310 E Suma Drive,50 members,31.495463,-110.275512,,,
Idaho Falls Astronomical Society,Idaho Falls 1710 Claremont Lane,18 members,43.4712322,-111.9992782,,,
Idyll-Gazers Astronomy Club,Idyllwild PO Box 1245,50 members,33.7467471,-116.7152556,,,
Indian River Astronomical Society,Vero Beach 6055 College Lane,32966,27.6338704,-80.4511222,,,
Indiana Astronomical Society Inc.,Mooresville 3820 E Wilson Drive,180 members,39.5949931,-86.3584469,,,
International Assoc for Astronomical Studies,Strasburg 1155 Yellow Jacket Rd,facebook.com/IAASorg/,39.733264,-104.268833,,,
Iowa City Astronomy Club,Iowa City PO Box 325,20 members,41.65807,-91.5313452,,,
Ithaca Amateur Astronomers,NY Ithaca,http://www.southerncayuga.org/Planetarium/Astronomyhome.htm,42.4439614,-76.5018807,,,
Jackson Hole Astronomy Club,Moran Box 123,45 members,46.0555582,-84.8600431,,,
Johnson County Middle School Astronomy Club,Paintsville 251 N Mayo Trail,(606)789-4133,37.8102689,-82.804549,,,
Johnson Space Center Astronomical Society,Houston 16335 Brookford Drive,http://www.ghg.net/cbr/jscas/,29.5989639,-95.1112285,,,
JSC Astronomical Society,Baycliff 4802 Redfish Reef,80 members,29.4972785,-94.9894386,,,
Junior Astronomy Club of St. Tammany,Slidell 113 N Randall Drive,504-646-0285,30.3085623,-89.7543183,,,
Kalamazoo Astronomical Society,Kalamazoo 600 West Vine Suite 400,175 members,42.2845733,-85.5904537,,,
Kanawha Valley Astronomical Society (KVAS),Charleston Breezy Point Observatory,http://www.kvas.org,32.7905312,-79.9056076,,,
Kanawha Valley Astronomical Society Inc.,Cross Lanes 5292 Questa Dr,35 members,38.4297705,-81.7689862,,,
Kankakee Area Stargazers,Bourbonnais Olivet University,60914,41.1549071,-87.8723694,,,
Kansas Astronomical Observers,Wichita PO Box 49013,30 members,37.6871761,-97.330053,,,
Kansas Astronomy Village,Blue Springs 304 E Agler Dr,816-229-2394,38.9819339,-94.2640431,,,
Kaua'i Educational Assn. for Science and Ast,Waimea PO Box 161,808-245-8250,20.0193783,-155.668467,,,
Keene Amateur Astronomers Inc.,Alstead RR1 Box 256A,25 members,43.149481,-72.3614201,,,
Kennedy Space Center Amateur Astronomers,Titusville 7523 Windover Way,http://www.4saleusa.net/kscaa,28.5192068,-80.8503849,,,
Kern Astronomical Society Inc.,Bakersfield 3308 Dartmouth St,60 members,35.403291,-118.9770842,,,
Keystone Oaks High School Astronomy Club,Pittsburgh 1000 Kelton Ave,412-571-6042 412-571-6048,40.387434,-80.031758,,,
Kids Astro Camp,South Bend 3121 Weist Lane,Astronomy camps for kids 10-12,41.6422099,-86.2238297,,,
Kingsville Astronomical Society,Kingsville PO Box 5918,http://www.geocities.com/kingsville,27.5158689,-97.856109,,,
Kiski Astronomers,Cabot 112 Old Pike Lane,25 members,40.7842737,-79.8008612,,,
Knoxville Observers Astronomy Club,Knoxville 1708 Gillespie Av,http://www.knoxvilleobservers.org,35.989966,-83.9137211,,,
Kokomo Astronomy Club,Kokomo Dept of Physics at Indiana University,15 members,40.4594451,-86.1316551,,,
Kopernik Astronomical Society,Vestal 698 Underwood Rd,100 members,42.0020481,-76.0333432,,,
L5 Society of Philadelphia,Lansdale 1825 Flintlock Circle,215-855-7130,40.2261822,-75.3308552,,,
Lackawanna Astronomical Society,Clarks Summit 1112 Fairview Rd,110 members,41.5120712,-75.6694239,,,
LaCrosse Area Astronomical Society,LaCrosse Physics Dept at University of Wisconsin,http://www.uwlax.edu/planetarium/laas.html,43.0738946,-89.4053863,,,
Lake County Astronomical Society,Ingleside Volo Bog State Natural Area at 28478 W Brandenburg Road,100 members,42.35144,-88.1884575,,,
Lake Erie West Astronomical Society,Toledo 2805 118th St,419-726-0385 eve 734-242-,41.713652,-83.478872,,,
Lake Tahoe Astronomers,S Lake Tahoe PO Box 14271,6 members,38.939926,-119.9771868,,,
Las Vegas Astronomical Society,Las Vegas 123 Las Vegas,1st Thu of each month at College of Southern Nevada,36.1532612,-115.2437966,,,
Lea County Astronomical Society,Hobbs New Mexico Junior College at 5317 Lovington Highway,505-392-5305 x 323,32.7578125,-103.1842749,,,
Lehigh Valley Amateur Astronomical Society,Allentown Joe Grady Planetarium at 3559 E Rock Rd,610-398-7295,40.5660978,-75.434924,,,
Lemon Bay High School Astronomy Club,Englewood 2201 Placida Rd,20 members,26.9261667,-82.330946,,,
Leonardo's Star Quest Astronomy Club,Enid 200 East Maple St,http://www.leonardos.org,36.399222,-97.876473,,,
Lima Astronomical Society,Lima PO Box 201,See event schedule for Schoonover Observatory at website above.,40.742551,-84.1052256,,,
Lincoln County Stargazers,Troy 341 Monroe St,25 members,38.9758429,-90.9763353,,,
Little Thompson Observatory,Berthoud 850 Spartan Avenue,http://www.starkids.org,40.2999952,-105.0871609,,,
Local Group of Deep Sky Observers,Bradenton 2311 23rd Ave W,100 members,27.4789366,-82.5851631,,,
Local Group of Santa Clarita Valley,Santa Clarita PO Box 221296,http://www.lgsvc.org,34.4588839,-118.5349444,,,
Lockport Astronomy Assn.,Lockport 7053 Northview Dr,716-433-4706,43.1583861,-78.6517313,,,
Long Island Observers Assn.,Huntington 3 Merriwood Ct,11743-3009,40.8781657,-73.3761885,,,
Longmont Astronomical Society,Longmont PO Box 8029,40 members,40.1672068,-105.1019275,,,
Los Angeles Astronomical Society,Los Angeles 2800 E Observatory Rd,430 members,34.1183426,-118.3004397,,,
Los Angeles Sidewalk Astronomers,Hollywood 1946 Vedanta Place,additional website www.sidewalkastronomers.com,34.1067191,-118.3274978,,,
Los Angeles Valley College Astronomy Club,Van Nuys 5800 Fulton Ave,25 members,34.1753393,-118.4189809,,,
Louisville Astronomical Society,Louisville PO Box 701043,114 members,38.2526647,-85.7584557,,,
Lowcountry Stargazers,Summerville 5246 Braddock Ave,http://www.lowcountrystargazers.org,32.891872,-79.9904049,,,
MaconState College Astronomy Club,Macon 100 College Station Rd,912-471-2827,32.8406946,-83.6324022,,,
Madison Astronomical Society Inc.,Madison 1605 South Park Street,100 members,43.0501216,-89.3935895,,,
Magic Valley Astronomical Society,Jerome 706 E 200 South,19 members,42.6931303,-114.3840988,,,
Mahoning Valley Astronomical Society,Newton Falls 1076 State Rte 534,67 members,41.2467837,-80.9757045,,,
Marquette Astronomical Society,Marquette PO Box 761,50 members,43.0388337,-87.9285667,,,
MARS Astronomy Club,Tampa 821 Settlers Rd,25 members,28.0862608,-82.4671842,,,
Martha's Vineyard Astronomy Club,Chilmark PO Box 141,16 members,41.3431688,-70.7447501,,,
Mattatuck Astronomical Society,Waterbury Naugatuck Valley Community Technical College,60 members,41.5498286,-73.0729008,,,
Maui Astronomy Club,Maui PO Box 12501,10 members,20.7983626,-156.3319253,,,
McDonnell-Douglas Amateur Astronomers,Florissant 3491 Heather Trail,35 members,38.8354883,-90.3203809,,,
Medina County Astronomical Society,Medina 4532 Ledgewood Drive,http://users.zoominternet.net/~matt,41.1601964,-81.8494793,,,
Memphis Astronomical Society,Memphis 4169 Rainey Woods Rd,60 members,35.0345785,-89.8010331,,,
Merced Society for Telescope & Astronomy Rec,Merced 928 W 9th St,25 members,37.2952689,-120.4950332,,,
Meteor Group Hawaii,Ocean View PO Box 6692,15 members,19.068611,-155.7649999,,,
Miami Valley Astronomical Society,Dayton Dayton Museum of Natural History at 2600 DeWeese Parkway,100 members,39.7886347,-84.2019907,,,
Michiana Astronomical Society,South Bend PO Box 262,20 members,41.6717421,-86.2483165,,,
Middle Georgia Astronomical Society,Macon Museum of Arts and Sciences,25 members,32.8648216,-83.695182,,,
Middle Tennessee Astronomical Society,Smyrna 306 Ella Street,http://mtas.tnsky.com,35.9619518,-86.5326306,,,
Mid-Hudson Astronomical Association,Poughkeepsie co Rick Versace PO Box 3640,60 members,41.7003713,-73.9209701,,,
Midlands Astronomy Club,Columbia PO Box 2527,50 members,34.0007104,-81.0348144,,,
Midwestern Astronomers,Fort Wright 1720 Monticello Dr,18 members,39.0493333,-84.534948,,,
Millstream Astronomy Club,Findlay 2019 Sterling Ct,40 members,41.063653,-83.6441948,,,
Milwaukee Astronomical Society,New Berlin 18850 W Observatory Rd,80 members,42.9683719,-88.1490191,,,
Minnesota Astronomical Society,Minneapolis PO Box 583011,350 members,44.977753,-93.2650108,,,
Mission Valley Astronomy Club,Ravalli PO Box 630064,http://www.geocities.com/mvac_mt/index.html,46.0174639,-114.1817423,,,
Mobile Astronomical Society,Mobile 1207 Selma St,30 members,30.680124,-88.0629619,,,
Mohawk Valley Astronomical Society,NY Clinton,http://www.mvas-ny.org/,43.0484029,-75.3785034,,,
Morris Museum Astronomical Society,Morristown 6 Normand Heights Rd,40 members,40.79587,-74.4486242,,,
Mount Diablo Astronomical Society,Walnut Creek PO Box 4889,165 members. Monthly meeting.,37.9100783,-122.0651819,,,
Mount Tam Observers,San Rafael 89 Dominican Dr,415-454-4715,37.9854354,-122.5165668,,,
Mount Wilson Observatory Assn.,Pasadena PO Box 70076,http://www.mtwilson.edu/mwoa.html,34.1477849,-118.1445155,,,
Mountain Skies Astronomical Society,Lake Arrowhead PO Box 1169,310 members,34.2483396,-117.1892078,,,
Mt. Diablo Observatory Assoc. Inc.,Walnut Creek PO Box 3165,http://www.mdia.org/astronomy.htm,37.9100783,-122.0651819,,,
Mt. Hood Observatory Assn.,Gresham 29404 SE Dodge Park Blvd,http://www.starstuff.com/mhoa.htm,45.4706672,-122.3604594,,,
Muncie Astronomy Club,Farmland 8256 W CR 300 S,35 members,40.120673,-85.0957943,,,
Muscle Shoals Astronomical Society Inc.,Florence 121 W Lee Ave,14 members,34.82492,-87.6851341,,,
Muskegon Astronomical Society,Muskegon 702 North Maple Island Rd,26 members,43.2666069,-86.0675283,,,
Naperville Astronomical Assn.,IL Naperville,120 members,41.7508391,-88.1535352,,,
National Capital Astronomers,Bethesda 8924 Ridge Place,250 members,39.0031428,-77.1261123,,,
National Deep Sky Observer's Society,Louisville 1607 Washington Blvd,100 members,38.2688468,-85.5841823,,,
National Public Observatory Inc.,Radium Springs PO Box 19,http://www.astronomy-national-publi,32.4928349,-106.9106762,,,
Neuman Astronomical Society,Helena Carroll College at 1601 North Benton Avenue,Oldest observatory in Montana  Observatory with 12.5 inch reflector.,46.6007369,-112.0386887,,,
Neville Museum Astronomical Society,Green Bay 1081 Raleigh St,http://npmas.org,44.502984,-88.0519339,,,
New Jersey Astronomical Assn.,High Bridge PO Box 214,370 members,40.6670454,-74.8957231,,,
New Mexico Tech Astronomy Club,Socorro Frank T Etscorn Campus Obs,40 members,34.0726728,-106.9144509,,,
Night Sky Observers,KY Louisville,Public outreach,38.2526647,-85.7584557,,,
NightSky 45 Astronomy,Jefferson 13566 Parrish Gap Rd SE,541-327-2839,44.757449,-122.9709251,,,
Norfolk Astronomical Society,Chesapeake 2808 Flag Rd,12 members,36.7629979,-76.345571,,,
North Central Kansas Astronomical Society,Manhattan 3711 Birch CT,http://www.nckas.org,39.1756369,-96.6181188,,,
North East Wisconsin Stargazers,Oshkosh PO Box 161,80 members from Green Bay-Appleton-Oshkosh area.,44.0247062,-88.5426136,,,
North Georgia Astronomers,Gainesville PO Box 5103,25 members,29.6516344,-82.3248262,,,
North Houston Astronomy Club,Kingwood Kingwood College,160 members,30.0538875,-95.2594254,,,
North Jersey Astronomical Group,Clifton PO Box 1472,50 members,40.8584328,-74.1637553,,,
North Shore Amateur Astronomy Club,Groveland 201 Washington Street,120 members,42.734447,-71.04765,,,
North Star Astronomical Society (NSAS),MI Gaylord,Monthly meetings at Peace Lutheran Church on 2nd Wed at 7pm.,45.0275126,-84.6747523,,,
North Star Astronomy Club,Brainerd 606 South 8th St,218-829-4029,46.3523297,-94.1980404,,,
North Texas Skywatch,Azle 113 Valley View,817-238-9883,32.8692083,-97.5182835,,,
Northeast Florida Astronomical Society Inc.,Jacksonville 2321 Camden Ave,70 members,30.2998094,-81.6308808,,,
Northeast Kansas Amateur Astronomers League,Topeka PO Box 951,40 members. Farpoint Observatory - 0.7m reflector,39.0415362,-95.7278271,,,
Northeast Nebraska Astronomy Club,Norfolk 710 S 4th,11 members,42.0253375,-97.4121759,,,
Northern Berkshire Amateur Astronomy Club,Adams 25 Park St,413-743-9176,42.6214806,-73.1202257,,,
Northern Cross Science Foundation,WI Ozaukee County,60 members,43.3819496,-87.6186379,,,
Northern Illinois Stargazers,Dixon 1672 Hill Drive,815-288-5183,41.8280701,-89.5812593,,,
Northern Illinois University Astronomical So,DeKalb Davis Hall Obs at Faraday West,10 members,41.933362,-88.765229,,,
Northern Skies Astronomical Society,Grand Forks Box 9008,20 members,47.9252568,-97.0328547,,,
Northern Virginia Astronomy Club,VA Centreville,1050 members,38.8403909,-77.4288769,,,
Northwest Astronomy Group,Vernonia 55371 McDonald Rd,60 members,45.800122,-123.210419,,,
Northwest Iowa Astronomers,Cherokee Sanford Museum Planetarium at 117 E Willow St,75 members,42.7501787,-95.5503779,,,
Northwest Ohio Visual Astronomers,Cygnet 6341 Loe Rd,419-655-2391,41.244847,-83.624043,,,
Northwest Oklahoma Astronomy Club,Enid 1719 Pawnee,55 members,36.3778164,-97.8996095,,,
Northwest Suburban Astronomers,Des Plaines 199 Brentwood Dr,100 members,42.0464652,-87.9251686,,,
NOVAE,St Clairsville 49080 Randal Dr,25 members,40.04509,-80.907115,,,
Oakland Astronomy Club,St Clairsville 49080 Richland Acres,25 members,40.0803199,-80.90176,,,
Oceanside Photo and Telescope Astronomical S,Oceanside 918 Mission Ave,180 members,33.1983867,-117.376199,,,
Odyssey Astronomy Club,Wanette Rt 2 Box 154,48 members,34.9620224,-97.0325225,,,
Ogden Astronomical Society,Roy 2336 W 5650 South,55 members,41.1607898,-112.0366219,,,
Oglethorpe Astronomical Assn.,Savannah 212 E Oglethorpe Ave,35 members,32.076523,-81.090047,,,
Ohio Valley Astronomical Society,Huntington 1 Highlander Way,20 members,38.3936242,-82.3985743,,,
Oil Region Astronomical Society,Oil City PO Box 1535,50 members,41.4339484,-79.7064413,,,
Oklahoma City Astronomy Club,Oklahoma City PO Box 22804,Oklahoma City Astronomy Club holds its monthly meeting at Science Museum Oklahoma,35.4675602,-97.5164276,,,
Olean Area Amateur Astronomy Group,Allegany 2264 Cheese Factory Rd,10 members,42.1000294,-78.5409075,,,
Olympic Astronomical Society,Keyport PO Box 458,80 members,40.4331631,-74.1995883,,,
Olympus Mons,Arlington University of Texas Physics Dept,http://www.olympusmons.org,32.7306605,-97.1140924,,,
Omaha Astronomical Society,Omaha 4509 Seward St,71 members,41.2739345,-95.9808411,,,
Orange County Astronomical Association (OCCA,NY Chester,http://ocastronomy.org.,41.3625937,-74.2712613,,,
ORION (Oak Ridge Isochronous Observation Net,Knoxville 4412 Damas Rd,50 members,35.9710943,-84.0104836,,,
Ozarks Amateur Astronomers Club,Springfield 901 S National,38 members,37.1981808,-93.2785969,,,
Pajarito Astronomers,Los Alamos PO Box 1092,45 members,35.8800364,-106.3031138,,,
Palomar Observatory,Palomar Mountain PO Box 200,http://www.astro.caltech.edu/paloma,33.3633675,-116.8355789,,,
Peninsula Astronomical Society,Mountain View PO Box 4542,250 members,37.3860517,-122.0838511,,,
Penn State Astronomy Club,University Park 202 HUB,50 members,40.8147955,-77.8653126,,,
Penobscot Valley Star Gazers,Stockton Springs 609 Cape Jellison Road,25 members,44.4553014,-68.8562,,,
Peoria Astronomical Society Inc.,Peoria 1125 W Lake St,124 members,40.7417339,-89.610817,,,
Phoenix Astronomical Society,Phoenix 3039 W Peoria Ave,90 members,33.5813937,-112.1252007,,,
Piedmont Amateur Astronomers,Statesville 182 Rumple Hill Dr,25 members,35.7355041,-80.9363472,,,
Piedmont Astronomy Club Inc.,Collinsville 176 Lackey Road,14 members,36.7329607,-79.9280368,,,
Pittsfield Astronomy Club,Pittsfield 35 Brenton Ter,http://www.astronomy.netfirms.com,42.4441497,-73.2633363,,,
Planetary Studies Foundation,Algonquin 812 Chatham Circle,http://planets.org,42.1650477,-88.3222052,,,
Pocatello Astronomical Society,Pocatello 27 Valleyview Drive,208-233-0711,42.8670465,-112.472896,,,
Polaris Astronomical Society,Moorpark 4375 Clearwood,50 members,34.2690437,-118.9012516,,,
Polaris Observatory Association Inc.,Somis PO Box 734,10 members,34.2637508,-118.9946323,,,
Pomona Valley Amateur Astronomers,Upland PO Box 162,112 members,34.1004163,-117.6467108,,,
Pontchartrain Astronomy Society Inc.,Kenner 409 Williams Blvd,160 members,29.9746786,-90.2464529,,,
Popular Astronomy Club Inc.,Rock Island 2535 45 St,72 members,41.48414,-90.5392429,,,
Ptolemy Schwartz Astronomical Society,New York 530 W 113th St,10025,40.8052883,-73.9638383,,,
Quad Cities Astronomical Society,Davenport PO Box 3706,Hosts annual Eastern Iowa Star Party,41.5236437,-90.5776367,,,
Quad Cities Astronomy Club,Cordova 21614 River Road,61242,41.740011,-90.30805,,,
Racine Astronomical Society,Union Grove 112 63rd Dr,90 members,42.7287729,-88.0281882,,,
Rainwater Astronomers Assn.,French Camp 1 Fine Place,http://rainwater.astronomers.org,33.2897304,-89.4003779,,,
Raleigh Astronomy Club Inc.,Raleigh PO Box 10643,70 members,35.7795897,-78.6381787,,,
Rappahannock Astronomy Club,Spotsylvania PO Box 868,http://www.raclub.org,38.1979096,-77.5877652,,,
Red River Astronomy Club,Texarkana 710 Walker Ln,Members from Arkansas, Oklahoma, Texas, and Louisiana,33.3854667,-94.1009074
Richmond Astronomical Society,Richmond 11536 Smoketree Dr,70 members,37.4812291,-77.6143774,,,
Rio Hondo Astronomical Society,Whittier 14517 E Broadway,12 members,33.9367915,-118.022497,,,
Rio Rancho Astronomical Society,Rio Rancho 609 Valley Meadows Dr NE,21 members,35.3165026,-106.7258826,,,
Rittenhouse Astronomical Society,Haverford 216 Elbow Lane,70 members,40.016399,-75.296189,,,
River Bend Astronomy Club,IL St Jacob,30 members,38.7139365,-89.7681496,,,
River Bend Astronomy Club,St Louis 4579 Laclede Avenue PMB 439,http://riverbendastro.org,38.6403162,-90.2614784,,,
River Valley Stargazers,Dover 63 Observatory Lane,20 members,43.8592316,-79.4280223,,,
Riverside Astronomical Society,Riverside PO Box 51222,200 members,33.9806005,-117.3754942,,,
Roanoke Valley Astronomical Society,Fincastle 932 Lee Lane,80 members,37.4801901,-79.9668527,,,
Rochester Academy of Sciences Astronomy Sect,Rochester PO Box 20292,250 members,43.1565779,-77.6088465,,,
Rochester Astronomy Club,Rochester 3705 Halling Place SW,20 members,43.9680676,-92.4825566,,,
Rock Valley Astronomical Society,Janesville 3903 Wilshire Lane,20 members,42.6903865,-88.9671359,,,
Rockford Amateur Astronomers Inc.,Rockford 6804 Alvina Rd,52 members,42.3555307,-89.1705626,,,
Rockland Astronomy Club,Suffern 214 Route 59 Suite 10304,170 members.,41.1126358,-74.1135812,,,
Rocky Mountain Astronomy Club,Pueblo 63 Portero,65 members,38.2178176,-104.6757727,,,
Roper Mountain Astronomers,Greenville PO Box 25665,60 members,34.8526176,-82.3940104,,,
Rose City Astronomers,Portland Museum of Science Ind at 1945 SE Water Ave,330 members,45.5083863,-122.6660136,,,
Rose-Hulman Astronomical Society,Terre Haute 5500 Wabash Ave,Thu nights at 8 pm,39.4836321,-87.3268569,,,
Ryerson Astronomical Society,Chicago 1100 E 58th St Box 8,15 members,41.7901748,-87.5991412,,,
Sacramento Valley Astronomical Society,Sacramento PO Box 15274,http://www.svas.org,38.5815719,-121.4943996,,,
Saguaro Astronomy Club,Phoenix 7714 N 36th Ave,95 members,33.5499744,-112.1371066,,,
Salina Astronomy Club,Salina 803 Mike Drive,20 members,38.7904987,-97.5989057,,,
Salt Lake Astronomical Society,Salt Lake City PO Box 26114,160 members,40.7607793,-111.8910474,,,
San Angelo Astronomy Association,San Angelo PO Box 60391,30 members,31.4619092,-100.4454358,,,
San Antonio Astronomical Assn.,San Antonio PO Box 701261,240 members,29.4241219,-98.4936282,,,
San Antonio Astronomical Observers Group,San Antonio 5145 Smith Road,30 members,29.206484,-98.607141,,,
San Bernardino Valley Amateur Astronomers,Redlands County Museum at 2024 Orange Tree Ln,75 members,34.0685455,-117.2228786,,,
San Diego Astronomy Assn.,San Diego PO Box 23215,531 members,32.715738,-117.1610838,,,
San Francisco Amateur Astronomers,San Francisco PO Box 15097,350+ members,37.7749295,-122.4194155,,,
San Francisco Sidewalk Astronomers,San Francisco 1801 Golden Gate Ave,http://members.aol.com/raycash/side,37.778264,-122.440342,,,
San Jose Astronomical Association,San Jose PO Box 28243,http://www.sjaa.net,37.3382082,-121.8863286,,,
San Mateo County Astronomical Society,San Mateo PO Box 974 Station A,Founded 1960. Covers San Mateo County, CA. Meets 1st Friday of month, San Mateo College Planetarium,37.5678669,-122.3236981,
Sandusky Valley Amateur Astronomy Club,Tiffin 650 SW Washington St,http://www.friendlynet.com/astronom,45.5202032,-122.6785277,,,
Sangamon Astronomical Society,Springfield 4501 Greenbriar Drive,22 members,39.7774889,-89.7349332,,,
Santa Cruz Astronomy Club,Santa Cruz L2 San Carlos Lane,60 members,36.9877001,-121.9729551,,,
Santa Monica Amateur Astronomy Club,Woodland Hills 5525 Canoga Ave Apt 208,48 members,34.1704057,-118.5990723,,,
SB Astronomical Unit,Santa Barbara Museum of Natural History at 2559 Puesta Del Sol Road,first Fri of every month from 7:30-9PM,34.4409134,-119.7144601,,,
Seattle Astronomical Society,Seattle PO Box 31746,233 members,47.6062095,-122.3320708,,,
Seven Ponds Astronomy Club,Dryden 3854 Crawford Rd,http://www.geocities.com/jelines,42.9276268,-83.1894741,,,
Sheboygan Astronomical Society,Fond du Lac N5427 Grandview Rd,28 members,43.7374869,-88.3703885,,,
Sheep Hill Astronomical Assn.,Boonton PO Box 111,30 members,40.9047708,-74.4094737,,,
Shenandoah Astronomical Society,Middletown co Lord Fairfax Community College,41 members,39.0360014,-78.2674314,,,
Shenandoah Valley Stargazers,Harrisonburg 745 Circle Drive,http://www.valleystargazers.com,38.444243,-78.893169,,,
Shoreline Amateur Astronomical Assn.,Holland 3882 62nd St,25 members,42.7020616,-86.1564641,,,
Shreveport-Bossier Astronomical Society Inc.,Shreveport 353 Ockley Dr,60 members,32.4648657,-93.7258378,,,
Sidewalk Astronomers of Sacramento,Sacramento 3728 Schutt Way,15 members,38.6357537,-121.4169791,,,
Sidewalk Astronomers of SASI International,Irving 3808 N Beltline 119,120 members,32.8589928,-96.9917594,,,
Silver Lake Regional High School Astronomy C,Kingston 260 Pembroke St,2364,42.0149216,-70.7854226,,,
Tri State Astronomical Society,SD Sioux Falls,http://www.tristateastro.org,43.5460223,-96.731265,,,
Sirius Lookers of Sedona,Sedona PO Box 87,28 members,34.8697395,-111.7609896,,,
Skokie Valley Astronomers,Warrenville 1 S 751 Avon Dr,24 members,41.8425159,-88.2085963,,,
Skyland Star Gazers,East Hanover 6 Deforest Ave,201-386-1848,40.8206539,-74.3652537,,,
Skyscrapers Inc.,North Scituate 47 Peeptoad Rd,120 members,41.844547,-71.589946,,,
Langley Exchange Skywatchers Astronomy Club,Hampton NASA Langley Research Center Mail Stop 308,20 members,37.0862472,-76.3808799,,,
Small Scope Observers Assn.,Audubon Park 4 Kingfisher Place,24 members,39.8971911,-75.0880328,,,
Smoky Mountain Astronomical Society,Knoxville PO Box 53265,50 members,35.9606384,-83.9207392,,,
Society for Scientific Exploration,Charlottesville PO Box 3818,http://www.scientificexploration.or,38.0293059,-78.4766781,,,
SolaFide Observatory,Austin 407 15 St SE,10 members,43.6633623,-92.9537471,,,
Sonoma County Astronomical Society,Santa Rosa PO Box 183,250 members,38.440429,-122.7140548,,,
Sonora Astronomical Society,Green Valley 101 Verde Vista,68 members,31.8721979,-110.9880827,,,
South Bay Astronomical Society,El Segundo 401 Coral Circle,75 members,33.9100626,-118.3849991,,,
South Florida Amateur Astronomers Assn.,Fort Lauderdale Robert Markham Park at 16001 West St,70 members,26.1270866,-80.3595362,,,
South Jersey Astronomy Club,Port Elizabeth PO Box 120,150 members,-33.9608369,25.6022423,,,
South Plains Astronomy Club,Lubbock RR2 Box 240,35 members,33.5778631,-101.8551665,,,
South Shore Astronomical Society,Scituate 34 Sylvester Rd,50 members,42.1964601,-70.785771,,,
South Texas Astronomical Society,TX Brownsville,facebook.com/STARSocietyRGV/,25.9017472,-97.4974838,,,
Southeastern Iowa Astronomy Club,West Burlington PO Box 14,40 members,40.8250386,-91.1565357,,,
Southern California Observers,Simi Valley 2010 Hillgate Way L,60 members,34.2717229,-118.7998129,,,
Southern Colorado Astronomical Society,Pueblo 3 Sundance Ct,30 members,38.3182691,-104.6325256,,,
Southern Cross Astronomical Society,Miami 5401 SW 110th Ave,200 members,25.7167902,-80.3724112,,,
Southern Oregon Skywatchers,Medford PO Box 4092,75 members,42.3265152,-122.8755949,,,
Southern Tier Astronomy Recreation Society,Bemus Point 4208 Bayview Rd,40 members,42.171916,-79.385572,,,
Southtowns Astronomy Club,West Seneca 145 Woodward,716-649-6759,42.8242038,-78.7476429,,,
Southwest Montana Astronomical Society,Bozeman Taylor Planetarium,55 members,45.6586239,-111.0451215,,,
Southwest Washington Astronomical Society,Olympia 2513 Wiggins Rd,35 members,47.0246106,-122.844899,,,
Spokane Astronomical Society (SAS),Spokane PO Box 8114,http://www.spokaneastronomy.org  ,47.6587802,-117.4260465,,,
Springfield Astronomical Society.,Nixa 875 N Katrina St,31 members,37.0562343,-93.3192356,,,
St. Louis Astronomical Society,Alton 911 Landgon St,250 members,38.8959697,-90.1780521,,,
St. Petersburg Astronomy Club Inc.,St Petersburg 7701 22nd Avenue N,270 members,27.7926763,-82.7444913,,,
Stanislaus Amateur Astronomers,Modesto 435 College Ave at Modesto Jr College,15 members,37.6497685,-121.0079137,,,
Star Astronomy Club,Laredo 4658 McPherson Apt C,100 members,27.538595,-99.4844297,,,
STAR Astronomy Society Inc.,Red Bank PO Box 863,100 members,40.3470543,-74.0643065,,,
Stargazers of the Villages,Lady Lake 1040 Soledad Way,50 members,28.9398491,-81.9621541,,,
Starlight Astronomy Club,Duncansville 732 Cedarcrest Dr,25 members,40.4180192,-78.4085725,,,
Starlight Observers League (SOL),Wichita Falls 302 Galleon Drive,http://www.solhome.us,33.8247566,-98.5449955,,,
STARS - Students Taking Astronomy-Related Su,San Francisco Dept of Astronomy at City College at 50 Phelan Ave,10 members,37.72569,-122.4510797,,,
Starsplitters of Wyalusing,Prairie du Chien PO Box 544,Observatory in Wyalusing State Park.  Member programs, public and school programs, 2000 visitors/yr,43.0516505,-91.1412404,
Statesboro Area Astronomy Club,Statesboro Dept of Physics at Georgia Southern University,50 members,32.4205489,-81.7865347,,,
Stillwater Astronomy Club,Stillwater PO Box 2614,30 members,36.1156071,-97.0583681,,,
Stillwater Stargazers,Troy Brukner Nature Center at 5995 Horseshoe Bend Rd,20 members,40.0164735,-84.3175712,,,
Stockton Astronomical Society,Stockton PO Box 243,135 members,37.9577016,-121.2907796,,,
Stony Ridge Obs. Inc.,Temecula PO Box 892769,25 members,33.5073989,-117.1235792,,,
Suffolk Astronomy Club,Shirley PO Box 703 Christ Baptist Church,516-399-1981,35.8776279,-78.6421873,,,
Sun City Palm Desert Astronomy Club,Palm Desert 78255 Griffin Dr,92211-1816,33.7670415,-116.2979593,,,
Sunset Astronomical Society,Bay City 3423 Hidden,50 members,43.5944677,-83.8888647,,,
Susquehanna Valley Amateur Astronomers,Lewisburg Bucknell Univ,20 members,40.9547722,-76.8850759,,,
Sweetwater Astronomical Society,Rock Springs 1113 Hilltop Dr,55 members,41.581356,-109.232573,,,
Syracuse Astronomical Society Inc.,Syracuse 306 Parsons Drive,110 members,43.0418373,-76.2135322,,,
Tacoma Astronomical Society,Puyallup 6103 132nd St E,175 members,47.1367248,-122.3476967,,,
Tallahassee Astronomical Society,Tallahassee PO Box 824,40 members, private dark sky site,30.4382559,-84.2807329,,
Tar River Astronomy Club,Rocky Mount 225 S Church St,20 members,35.9405463,-77.7975018,,,
TCC Astronomical Society,Chesapeake 3113 Golden Hind Road,45 members,36.8487031,-76.3926894,,,
Temecula Valley Astronomers,Murrieta PO Box 1292,30 members,33.5539143,-117.2139232,,,
Tennessee Valley Astronomy Club,Fayetteville 276 Swan Creek Rd,53 members,35.1679628,-86.7300541,,,
Texas Astronomical Society,Dallas PO Box 25162,518 members,32.7766642,-96.7969879,,,
Thames Amateur Astronomical Society,Gales Ferry 17 Partridge Hollow Rd,30 members,41.4185427,-72.0565151,,,
The Albuquerque Astronomical Society,Albuquerque PO Box 50581,420 members,35.0843859,-106.650422,,,
The Astronomy Connection,Los Gatos PO Box 134,http://www.seds.org/TAC,37.1600011,-121.9699569,,,
The Dark Sky Observers,Newton 87 Lincoln Laurel Road,12 members,40.9975724,-74.8881057,,,
The Gaston County Skywatchers,Gastonia Schiele Museum at 1500 E Garrison Blvd,http://groups.yahoo.com/groups/gast,35.253284,-81.158367,,,
The Home Planetarium Assn.,Gallatin 1203 Hwy 25,25 members,36.4015882,-86.4885917,,,
The Patient Astronomer,Silver Spring 2711 Harmon Rd1,301-933-1596,39.0281479,-77.0563677,,,
The Sirius Stargazers Club,MI South Rockwood,40 members,42.0639323,-83.2610406,,,
The Southwest Florida Astronomical Society,Cape Coral PO Box 100127,http://www.theeyepiece.org,26.5628537,-81.9495331,,,
Tidewater Amateur Telescope Makers,Virginia Beach 677 Charlecote Dr,30 members,36.8244614,-76.2031897,,,
Tidewater Community College Astronomical Soc,Chesapeake 3113 Golden Hind Rd,30 members,36.8487031,-76.3926894,,,
Toledo Astronomical Assn. Inc.,Sylvania 4653 Longfellow Rd,50 members,41.7009262,-83.6964767,,,
Tonopah Astronomical Society,Tonopah PO Box 526,http://astronomynv.org/tonopah/,38.069211,-117.2305861,,,
Treasure Coast Astronomical Society,Port St Lucie 1755 SE Berkshire Blvd,772-398-6237,27.2870656,-80.2712242,,,
Treasure Coast Astronomical Society,FL Fort Pierce,FL,27.4467056,-80.3256056,,,
Tri-State Astronomers,Hagerstown 823 Commonwealth Ave,50 members, Open to Public, Everyone Welcome, 3rd Wednesday @ 7:30pm,39.6268754,-77.7122155
Triad Action Astronomy Club,High Point 305 Gregg St,20 members,35.8897362,-79.941797,,,
Tri-City Astronomy Club,Richland PO Box 651,41 members,46.28042,-119.2751996,,,
Tri-State Astronomers,Falling Waters 70 Narrow Lane,50 members,39.575125,-77.841821,,,
Tri-Valley Stargazers,Livermore PO Box 2476,189 members,37.6818688,-121.7684732,,,
Tucson Amateur Astronomy Assn.,Tucson PO Box 41254,390 members,32.2226066,-110.9747108,,,
Tulare Astronomical Assn. Inc.,Tulare PO Box 515,120 members,36.2077288,-119.3473379,,,
Tule River Amateur Astronomers,Springville PO Box 999,35 members,40.1652335,-111.6107526,,,
TUVA Astronomy Club,OK Checotah,http://www.tuvaclub.org,35.4700993,-95.5230356,,,
Twin City Amateur Astronomers Inc.,Normal 508 Normal Ave,50 members,40.5159189,-88.9912253,,,
Tychonian Observers,Glassboro Rowan University at 201 Mullica Hill Rd,609-256-4500 X4379,39.7089194,-75.1182734,,,
Umpaqua Amateur Astronomers,Roseburg 3150 W Military Ave,18 members,43.201723,-123.393151,,,
United Astronomy Clubs of New Jersey Inc.,Blairstown 333 State Park Rd,12 astronomy clubs,40.908586,-74.926569,,,
University Lowbrow Astronomers,Ann Arbor 6655 Jackson Rd 415,100 members,42.2898115,-83.8628888,,,
University of Arizona Astronomy Club,Tucson Steward Obs,20 members,32.2330707,-110.9483062,,,
Utah Valley Astronomy Assn.,Lindon 54 N Canal Dr,100 members,40.3388404,-111.6990039,,,
Valley of the Moon Astronomical Society,Glen Ellen PO Box 999,707-996-1246,38.3640795,-122.5241487,,,
Vandenberg Amateur Astronomical Society,Vandenberg AFB PO Box 5321,35 members,34.7420267,-120.5724404,,,
Ventura County Astronomical Society,Simi Valley PO Box 982,http://www.vcas.org,34.2694474,-118.781482,,,
Vermont Astronomical Society,Williston PO Box 782,60 members,29.38747,-82.4467705,,,
Village Star Gazers Society,Hot Springs Village 33 Mesero Way,39 members,34.6844201,-92.9458291,,,
Villanova Astronomical Society,Villanova Astronomy Astrophysics at Villanova Univ,http://www.phy.vill.edu/astro/vas/v,40.0378952,-75.3433315,,,
Von Braun Astronomical Society,Huntsville PO Box 1142,100 members,34.7303688,-86.5861037,,,
Wabash County Astronomical Society Inc.,Wabash PO Box 49,30 members,40.797821,-85.8205411,,,
Wabash Valley Astronomical Society,West Lafayette PO Box 2020,35 members,40.4521725,-86.9171517,,,
Warren County Amateur Astronomy Club Inc.,Warren 310 E Fifth Ave,http://stargaze@penn.com,41.8535506,-79.1366186,,,
Warsaw Astronomical Society,Winona Lake 1308 Sunset Dr,30 members,41.2206468,-85.8031577,,,
Washington State University Astronomy Club,WA Pullman,20 members,46.7297771,-117.1817377,,,
Wayne County Astronomical Society,Wooster PO Box 802,30 members,40.8050565,-81.935143,,,
Wehr Astronomical Society,Franklin Wehr Nature Center at 9701 W College Ave,134 members,42.9252983,-88.035882,,,
West Central Minnesota Astronomy Group,Willmar 622 9th St SW,8 members,45.1163845,-95.0544722,,,
West Kentucky Amateur Astronomers,Dawson Springs 508 Park Ave,44 members,37.162,-87.6932567,,,
West Texas Astronomers,Midland Blakemore Planetarium at 1705 W Missouri,48 members,31.9923767,-102.0929307,,,
West Virginia University Astronomy Club,Morgantown PO Box 6315,25 members,39.629526,-79.9558968,,,
Western Amateur Astronomers,Lafayette PO Box 412,http://www.waa.av.org/,30.2240897,-92.0198427,,,
Western Colorado Astronomy Club,Grand Junction PO Box 55032,25 members,39.0638705,-108.5506486,,,
Western Montana Astronomical Assn.,Missoula 4216 South Ave West,20 members,46.8489413,-114.0852195,,,
Westminster Astronomical Society,Westminster 300 John Owings Road,14-inch Schmidt-Cassagrain,39.6501101,-76.9925893,,,
Westport Astronomical Society,Westport 182 Bayberry Lane,120 members,41.1709924,-73.3295398,,,
Whatcom Association of Celestial Observers,Ferndale PO Box 1721,45 members,48.8464991,-122.5910056,,,
Whitney Astronomy Assn.,North Richland Hills 7005 Southampton,http://whitney-astro.com,32.8661405,-97.2330729,,,
Wilderness Center Astronomy Club,Wilmot 9877 Alabama Ave SW,20 members,40.67021,-81.641143,,,
Williamson County Astronomy Club,Georgetown 901 S Church St,25 members,30.6356095,-97.6758161,,,
Willingboro Astronomical Society,Gloucester PO Box 371,40 members,42.6159285,-70.6619888,,,
Winston-Salem Astronomical League,WinstonSalem 4231 Witherow Road,http://www.wsal.org,36.1455351,-80.3184852,,,
Winter Haven Astronomy Club,Winter Haven 1872 4th St SE,http://home.att.net/~whastro/,28.0011891,-81.7219243,,,
Yakima Astronomical Society,Yakima 801 Crest Drive,20 members,46.6099006,-120.5804825,,,
Yellowstone Valley Amateur Astronomers,Billings 1816 Miles Ave,40 members,45.7735591,-108.5625014,,,
York County Astronomical Society,York 400 Mundis Race Rd,50 members,40.0273515,-76.7026377,,,
Astronomical Society of Greenwich,Greenwich The Bruce Museum Museum Drive,1st Wed 7:30pm, Oct-May (except Jan),41.0197395,-73.6228505,,
Roswell Astronomy Club,Roswell 807 N Missouri,4th Thu at 7pm Jan-Oct,33.4018623,-104.5299681,,,
Lipan Astronomy & Space Society,Lipan 1180 Addison Rd,http://lipan.net/~rradd/,32.541958,-98.0763469,,,
Mt Shasta Star Gazers,Mt Shasta 309 N Mt Shasta Blvd,http://www.mtshastastargazers.com,41.3133853,-122.3128984,,,
Desert Foothills Astronomy Club,Anthem North Valley Regional Library,http://www.dfacaz.org,,,,,
,33.8526985,-112.1401961,,,,,
NW Jersey Amateur Astronomers ,NJ Blairstown,100 members,40.9831018,-74.9589405,,,
Carbon County Star Parties,UT Price,236 members,39.5994095,-110.8107148,,,
Fairmont Astronomy Club,Fairmont 404 E 1st street,facebook.com/https://m.facebook.com/groups/112990205391489?ref=bookmarks,43.6528254,-94.4576697,,,
General Motors Astronomy Club,Milford General Motors Milford Proving Ground,monthly public meetings,42.5748496,-83.6670403,,,
Star City Astronomy Network,Roanoke 3578 Berryhill Dr,8 members,37.2287206,-79.9881766,,,
Rim Astronomy Club,Payson 607 S Beeline Hwy Sp 6,16-in GoTo Dob,34.2331086,-111.3232449,,,
Cache Valley Astronmical Society,Nibley 2689 S 800 W,32 members,41.6838583,-111.8527131,,,
Central Texas Astronomical Society,Clifton 14801 FM 182,100+ members,31.6814725,-97.6743124,,,
Crystal Coast Stargazers,Harkers Island 103 Decoy Drive,40 members,34.7070988,-76.5811063,,,
Astronomy Club of Verrado,Buckeye 4239 North Village Street,300+ members,33.4960062,-112.5113524,,,
Amateur Astronomers Group,Alamogordo 509 Dog Canyon Road,facebook.com/https://www.facebook.com/AmateurAstronomersGroup/,32.7470506,-105.9246942,,,
Columbia Astronomers,Downey 12400 Columbia Way,https://nightsky.jpl.nasa.gov/club-view.cfm?Club_ID=1523,33.9198496,-118.1336177,,,
Sugar Creek Astronomical Society,AR Bella Vista,meets at Hobbs State Park Visitors Center,36.481464,-94.2732642,,,
St Louis Astronomical Society,MO St Louis,meets at Washington University,38.6270025,-90.1994042,,,
Broken Arrow Sidewalk Astronomers,Broken Arrow 829 W Vicksburg St,facebook.com/BASideWalkAstronomer,36.0095656,-95.8009842,,,
Santa Fe Stargazers,Santa Fe 14 Avenida Torreon,meets at Vista Grande Library,35.5369793,-105.9094798,,,
